[{"OBJECT_NAME":"SL-8 R/B","OBJECT_ID":"1991-006B","EPOCH":"2026-03-19T17:47:06.480672","MEAN_MOTION":13.77495539,"ECCENTRICITY":0.002246,"INCLINATION":82.9458,"RA_OF_ASC_NODE":162.5736,"ARG_OF_PERICENTER":10.8624,"MEAN_ANOMALY":150.5114,"EPHEMERIS_TYPE":0,"CLASSIFICATION_TYPE":"U","NORAD_CAT_ID":21088,"ELEMENT_SET_NO":999,"REV_AT_EPOCH":76545,"BSTAR":6.755e-5,"MEAN_MOTION_DOT":8.3e-7,"MEAN_MOTION_DDOT":0},{"OBJECT_NAME":"OKEAN-3","OBJECT_ID":"1991-039A","EPOCH":"2026-03-19T18:51:57.274848","MEAN_MOTION":15.04870089,"ECCENTRICITY":0.00129,"INCLINATION":82.519,"RA_OF_ASC_NODE":327.0636,"ARG_OF_PERICENTER":299.3062,"MEAN_ANOMALY":60.6876,"EPHEMERIS_TYPE":0,"CLASSIFICATION_TYPE":"U","NORAD_CAT_ID":21397,"ELEMENT_SET_NO":999,"REV_AT_EPOCH":86655,"BSTAR":0.00012794,"MEAN_MOTION_DOT":1.839e-5,"MEAN_MOTION_DDOT":0},{"OBJECT_NAME":"COSMOS 2151","OBJECT_ID":"1991-042A","EPOCH":"2026-03-19T19:43:55.155360","MEAN_MOTION":15.0014563,"ECCENTRICITY":0.0013315,"INCLINATION":82.4933,"RA_OF_ASC_NODE":73.8988,"ARG_OF_PERICENTER":32.5008,"MEAN_ANOMALY":327.7033,"EPHEMERIS_TYPE":0,"CLASSIFICATION_TYPE":"U","NORAD_CAT_ID":21422,"ELEMENT_SET_NO":999,"REV_AT_EPOCH":86471,"BSTAR":0.00013518,"MEAN_MOTION_DOT":1.716e-5,"MEAN_MOTION_DDOT":0},{"OBJECT_NAME":"SL-14 R/B","OBJECT_ID":"1991-042B","EPOCH":"2026-03-19T19:39:26.277696","MEAN_MOTION":14.81839767,"ECCENTRICITY":0.0016445,"INCLINATION":82.4941,"RA_OF_ASC_NODE":210.6846,"ARG_OF_PERICENTER":203.3406,"MEAN_ANOMALY":156.7063,"EPHEMERIS_TYPE":0,"CLASSIFICATION_TYPE":"U","NORAD_CAT_ID":21423,"ELEMENT_SET_NO":999,"REV_AT_EPOCH":85457,"BSTAR":5.1606e-5,"MEAN_MOTION_DOT":4.32e-6,"MEAN_MOTION_DDOT":0},{"OBJECT_NAME":"ERS-1","OBJECT_ID":"1991-050A","EPOCH":"2026-03-19T06:57:21.461472","MEAN_MOTION":14.39456317,"ECCENTRICITY":0.00321608,"INCLINATION":98.7875,"RA_OF_ASC_NODE":96.7655,"ARG_OF_PERICENTER":171.8813,"MEAN_ANOMALY":188.2901,"EPHEMERIS_TYPE":0,"CLASSIFICATION_TYPE":"U","NORAD_CAT_ID":21574,"ELEMENT_SET_NO":999,"REV_AT_EPOCH":81711,"BSTAR":9.4122725e-5,"MEAN_MOTION_DOT":2.49e-6,"MEAN_MOTION_DDOT":0},{"OBJECT_NAME":"ARIANE 40 R/B","OBJECT_ID":"1991-050F","EPOCH":"2026-03-19T17:36:58.922784","MEAN_MOTION":14.42900485,"ECCENTRICITY":0.0004025,"INCLINATION":98.1991,"RA_OF_ASC_NODE":130.5926,"ARG_OF_PERICENTER":59.2133,"MEAN_ANOMALY":300.9453,"EPHEMERIS_TYPE":0,"CLASSIFICATION_TYPE":"U","NORAD_CAT_ID":21610,"ELEMENT_SET_NO":999,"REV_AT_EPOCH":82044,"BSTAR":8.0428e-5,"MEAN_MOTION_DOT":2.27e-6,"MEAN_MOTION_DDOT":0},{"OBJECT_NAME":"INTERCOSMOS 25","OBJECT_ID":"1991-086A","EPOCH":"2026-03-19T15:30:39.556224","MEAN_MOTION":12.12033886,"ECCENTRICITY":0.1486828,"INCLINATION":82.6036,"RA_OF_ASC_NODE":303.9901,"ARG_OF_PERICENTER":95.4818,"MEAN_ANOMALY":281.7071,"EPHEMERIS_TYPE":0,"CLASSIFICATION_TYPE":"U","NORAD_CAT_ID":21819,"ELEMENT_SET_NO":999,"REV_AT_EPOCH":49789,"BSTAR":0.00029058,"MEAN_MOTION_DOT":1.52e-5,"MEAN_MOTION_DDOT":0},{"OBJECT_NAME":"SL-8 R/B","OBJECT_ID":"1992-008B","EPOCH":"2026-03-19T06:29:04.713216","MEAN_MOTION":13.75969672,"ECCENTRICITY":0.00358625,"INCLINATION":82.9223,"RA_OF_ASC_NODE":260.6493,"ARG_OF_PERICENTER":107.4005,"MEAN_ANOMALY":64.9002,"EPHEMERIS_TYPE":0,"CLASSIFICATION_TYPE":"U","NORAD_CAT_ID":21876,"ELEMENT_SET_NO":999,"REV_AT_EPOCH":71073,"BSTAR":-9.016116e-6,"MEAN_MOTION_DOT":7.0e-8,"MEAN_MOTION_DDOT":0},{"OBJECT_NAME":"SL-8 R/B","OBJECT_ID":"1992-020B","EPOCH":"2026-03-19T16:14:20.366304","MEAN_MOTION":13.75550179,"ECCENTRICITY":0.0027543,"INCLINATION":82.9321,"RA_OF_ASC_NODE":146.3473,"ARG_OF_PERICENTER":269.5872,"MEAN_ANOMALY":246.2146,"EPHEMERIS_TYPE":0,"CLASSIFICATION_TYPE":"U","NORAD_CAT_ID":21938,"ELEMENT_SET_NO":999,"REV_AT_EPOCH":70250,"BSTAR":3.9806e-5,"MEAN_MOTION_DOT":5.3e-7,"MEAN_MOTION_DDOT":0},{"OBJECT_NAME":"USA 81","OBJECT_ID":"1992-023A","EPOCH":"2026-03-19T05:30:11.756736","MEAN_MOTION":14.32370993,"ECCENTRICITY":0.00021886,"INCLINATION":85.0066,"RA_OF_ASC_NODE":125.937,"ARG_OF_PERICENTER":70.8196,"MEAN_ANOMALY":289.3234,"EPHEMERIS_TYPE":0,"CLASSIFICATION_TYPE":"U","NORAD_CAT_ID":21949,"ELEMENT_SET_NO":999,"REV_AT_EPOCH":9615,"BSTAR":5.4021715e-5,"MEAN_MOTION_DOT":1.66e-6,"MEAN_MOTION_DDOT":0},{"OBJECT_NAME":"COSMOS 2219","OBJECT_ID":"1992-076A","EPOCH":"2026-03-19T20:22:11.745120","MEAN_MOTION":14.14093207,"ECCENTRICITY":0.0018388,"INCLINATION":71.064,"RA_OF_ASC_NODE":356.8331,"ARG_OF_PERICENTER":192.7984,"MEAN_ANOMALY":167.2674,"EPHEMERIS_TYPE":0,"CLASSIFICATION_TYPE":"U","NORAD_CAT_ID":22219,"ELEMENT_SET_NO":999,"REV_AT_EPOCH":71981,"BSTAR":-4.9414e-5,"MEAN_MOTION_DOT":-1.41e-6,"MEAN_MOTION_DDOT":0},{"OBJECT_NAME":"SL-16 R/B","OBJECT_ID":"1992-076B","EPOCH":"2026-03-19T17:50:30.719040","MEAN_MOTION":14.16860856,"ECCENTRICITY":0.001062,"INCLINATION":71.0006,"RA_OF_ASC_NODE":167.1976,"ARG_OF_PERICENTER":77.765,"MEAN_ANOMALY":93.887,"EPHEMERIS_TYPE":0,"CLASSIFICATION_TYPE":"U","NORAD_CAT_ID":22220,"ELEMENT_SET_NO":999,"REV_AT_EPOCH":72325,"BSTAR":0.00016022,"MEAN_MOTION_DOT":2.74e-6,"MEAN_MOTION_DDOT":0},{"OBJECT_NAME":"COSMOS 2221","OBJECT_ID":"1992-080A","EPOCH":"2026-03-19T06:25:24.623904","MEAN_MOTION":14.96238202,"ECCENTRICITY":0.00148625,"INCLINATION":82.5001,"RA_OF_ASC_NODE":269.9038,"ARG_OF_PERICENTER":155.4729,"MEAN_ANOMALY":204.7203,"EPHEMERIS_TYPE":0,"CLASSIFICATION_TYPE":"U","NORAD_CAT_ID":22236,"ELEMENT_SET_NO":999,"REV_AT_EPOCH":78222,"BSTAR":0.00015741971,"MEAN_MOTION_DOT":1.805e-5,"MEAN_MOTION_DDOT":0},{"OBJECT_NAME":"SL-16 R/B","OBJECT_ID":"1992-093B","EPOCH":"2026-03-19T20:17:17.241216","MEAN_MOTION":14.15448524,"ECCENTRICITY":0.0006297,"INCLINATION":71.0238,"RA_OF_ASC_NODE":342.9485,"ARG_OF_PERICENTER":283.4207,"MEAN_ANOMALY":76.6213,"EPHEMERIS_TYPE":0,"CLASSIFICATION_TYPE":"U","NORAD_CAT_ID":22285,"ELEMENT_SET_NO":999,"REV_AT_EPOCH":71459,"BSTAR":0.00014669,"MEAN_MOTION_DOT":2.39e-6,"MEAN_MOTION_DDOT":0},{"OBJECT_NAME":"COSMOS 2228","OBJECT_ID":"1992-094A","EPOCH":"2026-03-19T19:29:40.698240","MEAN_MOTION":14.97240479,"ECCENTRICITY":0.0016607,"INCLINATION":82.517,"RA_OF_ASC_NODE":227.6174,"ARG_OF_PERICENTER":267.7808,"MEAN_ANOMALY":92.1513,"EPHEMERIS_TYPE":0,"CLASSIFICATION_TYPE":"U","NORAD_CAT_ID":22286,"ELEMENT_SET_NO":999,"REV_AT_EPOCH":77757,"BSTAR":0.00018911,"MEAN_MOTION_DOT":2.22e-5,"MEAN_MOTION_DDOT":0},{"OBJECT_NAME":"SL-16 R/B","OBJECT_ID":"1993-016B","EPOCH":"2026-03-19T17:53:21.709824","MEAN_MOTION":14.1530749,"ECCENTRICITY":0.0012307,"INCLINATION":71.0082,"RA_OF_ASC_NODE":194.0623,"ARG_OF_PERICENTER":301.0467,"MEAN_ANOMALY":58.9447,"EPHEMERIS_TYPE":0,"CLASSIFICATION_TYPE":"U","NORAD_CAT_ID":22566,"ELEMENT_SET_NO":999,"REV_AT_EPOCH":70359,"BSTAR":-0.00011182,"MEAN_MOTION_DOT":-2.66e-6,"MEAN_MOTION_DDOT":0},{"OBJECT_NAME":"COSMOS 2242","OBJECT_ID":"1993-024A","EPOCH":"2026-03-19T20:46:34.427136","MEAN_MOTION":14.96589883,"ECCENTRICITY":0.0014933,"INCLINATION":82.5152,"RA_OF_ASC_NODE":256.9802,"ARG_OF_PERICENTER":271.5176,"MEAN_ANOMALY":88.4336,"EPHEMERIS_TYPE":0,"CLASSIFICATION_TYPE":"U","NORAD_CAT_ID":22626,"ELEMENT_SET_NO":999,"REV_AT_EPOCH":78191,"BSTAR":0.00015511,"MEAN_MOTION_DOT":1.795e-5,"MEAN_MOTION_DDOT":0}]
